GLOBALSTAR M075 [+]     
1 37192U 10054E   24096.37815955 -.00000097  00000+0  39774-4 0  9996
2 37192  51.9947  74.5673 0000462  63.5003 100.6539 12.62272085620715
GLOBALSTAR M073 [+]     
1 37193U 10054F   24096.45884118 -.00000075  00000+0  15853-3 0  9990
2 37193  52.0084 347.8094 0000805  85.5153  85.9607 12.62263202622550
GLOBALSTAR M083 [+]     
1 37739U 11033A   24096.51715123 -.00000056  00000+0  26671-3 0  9999
2 37739  51.9856 296.9620 0000705  77.7487 299.1519 12.62267834591586
GLOBALSTAR M088 [+]     
1 37740U 11033B   24096.56896953 -.00000114  00000+0 -56892-4 0  9992
2 37740  51.9725 202.6612 0000548  94.7633 278.3087 12.62266622587134
GLOBALSTAR M091 [+]     
1 37741U 11033C   24096.61160441 -.00000091  00000+0  72936-4 0  9995
2 37741  51.9983 165.3040 0000386  73.1062  73.9894 12.62261293587929
GLOBALSTAR M085 [+]     
1 37742U 11033D   24096.33153345 -.00000086  00000+0  10094-3 0  9990
2 37742  51.9846 117.5824 0000366  53.4980 319.6393 12.62269370588407
GLOBALSTAR M081 [+]     
1 37743U 11033E   24096.46668819 -.00000078  00000+0  14644-3 0  9998
2 37743  51.9937 119.6876 0000514  63.4101  84.4294 12.62263891588566
GLOBALSTAR M089 [+]     
1 37744U 11033F   24096.34806806 -.00000091  00000+0  71858-4 0  9992
2 37744  51.9928  74.3578 0000622 106.2413  41.5074 12.62261659589397
